CTC2_L_00294001-01
1 10000U 22199TL  26075.70043981  .00000000  00000+0  00000-0 0  9995
2 10000  75.0000   0.0000 0000000   0.0000   0.0000 13.81096544    17
CTC2_L_00294001-02
1 10001U 23845UJ  26075.70043981  .00000000  00000+0  00000-0 0  9995
2 10001  75.0000   0.0000 0000000   0.0000  90.0000 13.81096544    17
CTC2_L_00294001-03
1 10002U 23099DX  26075.70043981  .00000000  00000+0  00000-0 0  9997
2 10002  75.0000   0.0000 0000000   0.0000 180.0000 13.81096544    18
CTC2_L_00294001-04
1 10003U 23813KJ  26075.70043981  .00000000  00000+0  00000-0 0  9992
2 10003  75.0000   0.0000 0000000   0.0000 270.0000 13.81096544    19
CTC2_L_00294002-01
1 10004U 22782YN  26075.70043981  .00000000  00000+0  00000-0 0  9997
2 10004  75.0000  12.0000 0000000   0.0000  12.0000 13.81096544    17
CTC2_L_00294002-02
1 10005U 23772DV  26075.70043981  .00000000  00000+0  00000-0 0  9998
2 10005  75.0000  12.0000 0000000   0.0000 102.0000 13.81096544    18
CTC2_L_00294002-03
1 10006U 23235IA  26075.70043981  .00000000  00000+0  00000-0 0  9993
2 10006  75.0000  12.0000 0000000   0.0000 192.0000 13.81096544    18
CTC2_L_00294002-04
1 10007U 23375XF  26075.70043981  .00000000  00000+0  00000-0 0  9999
2 10007  75.0000  12.0000 0000000   0.0000 282.0000 13.81096544    19
CTC2_L_00294003-01
1 10008U 23528XE  26075.70043981  .00000000  00000+0  00000-0 0  9990
2 10008  75.0000  24.0000 0000000   0.0000  24.0000 13.81096544    17
CTC2_L_00294003-02
1 10009U 22436EI  26075.70043981  .00000000  00000+0  00000-0 0  9998
2 10009  75.0000  24.0000 0000000   0.0000 114.0000 13.81096544    18
CTC2_L_00294003-03
1 10010U 24771PD  26075.70043981  .00000000  00000+0  00000-0 0  9994
2 10010  75.0000  24.0000 0000000   0.0000 204.0000 13.81096544    10
CTC2_L_00294003-04
1 10011U 24245VD  26075.70043981  .00000000  00000+0  00000-0 0  9991
2 10011  75.0000  24.0000 0000000   0.0000 294.0000 13.81096544    10
CTC2_L_00294004-01
1 10012U 23628XL  26075.70043981  .00000000  00000+0  00000-0 0  9996
2 10012  75.0000  36.0000 0000000   0.0000  36.0000 13.81096544    18
CTC2_L_00294004-02
1 10013U 22502MU  26075.70043981  .00000000  00000+0  00000-0 0  9997
2 10013  75.0000  36.0000 0000000   0.0000 126.0000 13.81096544    19
CTC2_L_00294004-03
1 10014U 23284SU  26075.70043981  .00000000  00000+0  00000-0 0  9996
2 10014  75.0000  36.0000 0000000   0.0000 216.0000 13.81096544    10
CTC2_L_00294004-04
1 10015U 22572UY  26075.70043981  .00000000  00000+0  00000-0 0  9996
2 10015  75.0000  36.0000 0000000   0.0000 306.0000 13.81096544    11
CTC2_L_00294005-01
1 10016U 25304WK  26075.70043981  .00000000  00000+0  00000-0 0  9993
2 10016  75.0000  48.0000 0000000   0.0000  48.0000 13.81096544    18
CTC2_L_00294005-02
1 10017U 26185YY  26075.70043981  .00000000  00000+0  00000-0 0  9992
2 10017  75.0000  48.0000 0000000   0.0000 138.0000 13.81096544    19
CTC2_L_00294005-03
1 10018U 26343CV  26075.70043981  .00000000  00000+0  00000-0 0  9999
2 10018  75.0000  48.0000 0000000   0.0000 228.0000 13.81096544    10
CTC2_L_00294005-04
1 10019U 26884SD  26075.70043981  .00000000  00000+0  00000-0 0  9990
2 10019  75.0000  48.0000 0000000   0.0000 318.0000 13.81096544    11
CTC2_L_00294006-01
1 10020U 22503VU  26075.70043981  .00000000  00000+0  00000-0 0  9996
2 10020  75.0000  60.0000 0000000   0.0000  60.0000 13.81096544    11
CTC2_L_00294006-02
1 10021U 23987IF  26075.70043981  .00000000  00000+0  00000-0 0  9994
2 10021  75.0000  60.0000 0000000   0.0000 150.0000 13.81096544    12
CTC2_L_00294006-03
1 10022U 23198FG  26075.70043981  .00000000  00000+0  00000-0 0  9999
2 10022  75.0000  60.0000 0000000   0.0000 240.0000 13.81096544    13
CTC2_L_00294006-04
1 10023U 25661MN  26075.70043981  .00000000  00000+0  00000-0 0  9997
2 10023  75.0000  60.0000 0000000   0.0000 330.0000 13.81096544    14
CTC2_L_00294007-01
1 10024U 25776WJ  26075.70043981  .00000000  00000+0  00000-0 0  9995
2 10024  75.0000  72.0000 0000000   0.0000  72.0000 13.81096544    11
CTC2_L_00294007-02
1 10025U 26704HA  26075.70043981  .00000000  00000+0  00000-0 0  9998
2 10025  75.0000  72.0000 0000000   0.0000 162.0000 13.81096544    12
CTC2_L_00294007-03
1 10026U 26856WN  26075.70043981  .00000000  00000+0  00000-0 0  9997
2 10026  75.0000  72.0000 0000000   0.0000 252.0000 13.81096544    13
CTC2_L_00294007-04
1 10027U 22287BI  26075.70043981  .00000000  00000+0  00000-0 0  9992
2 10027  75.0000  72.0000 0000000   0.0000 342.0000 13.81096544    14
CTC2_L_00294008-01
1 10028U 22590KB  26075.70043981  .00000000  00000+0  00000-0 0  9990
2 10028  75.0000  84.0000 0000000   0.0000  84.0000 13.81096544    11
CTC2_L_00294008-02
1 10029U 23891WX  26075.70043981  .00000000  00000+0  00000-0 0  9996
2 10029  75.0000  84.0000 0000000   0.0000 174.0000 13.81096544    12
CTC2_L_00294008-03
1 10030U 24402UI  26075.70043981  .00000000  00000+0  00000-0 0  9997
2 10030  75.0000  84.0000 0000000   0.0000 264.0000 13.81096544    14
CTC2_L_00294008-04
1 10031U 24325EW  26075.70043981  .00000000  00000+0  00000-0 0  9992
2 10031  75.0000  84.0000 0000000   0.0000 354.0000 13.81096544    15
CTC2_L_00294009-01
1 10032U 23222CA  26075.70043981  .00000000  00000+0  00000-0 0  9998
2 10032  75.0000  96.0000 0000000   0.0000  96.0000 13.81096544    12
CTC2_L_00294009-02
1 10033U 26426OA  26075.70043981  .00000000  00000+0  00000-0 0  9998
2 10033  75.0000  96.0000 0000000   0.0000 186.0000 13.81096544    13
CTC2_L_00294009-03
1 10034U 23529KZ  26075.70043981  .00000000  00000+0  00000-0 0  9990
2 10034  75.0000  96.0000 0000000   0.0000 276.0000 13.81096544    14
CTC2_L_00294009-04
1 10035U 23579PB  26075.70043981  .00000000  00000+0  00000-0 0  9996
2 10035  75.0000  96.0000 0000000   0.0000   6.0000 13.81096544    16
CTC2_L_00294010-01
1 10036U 23004SV  26075.70043981  .00000000  00000+0  00000-0 0  9990
2 10036  75.0000 108.0000 0000000   0.0000 108.0000 13.81096544    14
CTC2_L_00294010-02
1 10037U 24103RH  26075.70043981  .00000000  00000+0  00000-0 0  9992
2 10037  75.0000 108.0000 0000000   0.0000 198.0000 13.81096544    14
CTC2_L_00294010-03
1 10038U 24786BY  26075.70043981  .00000000  00000+0  00000-0 0  9990
2 10038  75.0000 108.0000 0000000   0.0000 288.0000 13.81096544    15
CTC2_L_00294010-04
1 10039U 26485Z   26075.70043981  .00000000  00000+0  00000-0 0  9999
2 10039  75.0000 108.0000 0000000   0.0000  18.0000 13.81096544    17
CTC2_L_00294011-01
1 10040U 24784QG  26075.70043981  .00000000  00000+0  00000-0 0  9991
2 10040  75.0000 120.0000 0000000   0.0000 120.0000 13.81096544    17
CTC2_L_00294011-02
1 10041U 23870AF  26075.70043981  .00000000  00000+0  00000-0 0  9997
2 10041  75.0000 120.0000 0000000   0.0000 210.0000 13.81096544    18
CTC2_L_00294011-03
1 10042U 23734HI  26075.70043981  .00000000  00000+0  00000-0 0  9997
2 10042  75.0000 120.0000 0000000   0.0000 300.0000 13.81096544    19
CTC2_L_00294011-04
1 10043U 23734RQ  26075.70043981  .00000000  00000+0  00000-0 0  9998
2 10043  75.0000 120.0000 0000000   0.0000  30.0000 13.81096544    10
CTC2_L_00294012-01
1 10044U 26238AL  26075.70043981  .00000000  00000+0  00000-0 0  9991
2 10044  75.0000 132.0000 0000000   0.0000 132.0000 13.81096544    17
CTC2_L_00294012-02
1 10045U 23529UA  26075.70043981  .00000000  00000+0  00000-0 0  9992
2 10045  75.0000 132.0000 0000000   0.0000 222.0000 13.81096544    18
CTC2_L_00294012-03
1 10046U 25188WT  26075.70043981  .00000000  00000+0  00000-0 0  9996
2 10046  75.0000 132.0000 0000000   0.0000 312.0000 13.81096544    19
CTC2_L_00294012-04
1 10047U 25176HK  26075.70043981  .00000000  00000+0  00000-0 0  9994
2 10047  75.0000 132.0000 0000000   0.0000  42.0000 13.81096544    10
CTC2_L_00294013-01
1 10048U 25945SY  26075.70043981  .00000000  00000+0  00000-0 0  9999
2 10048  75.0000 144.0000 0000000   0.0000 144.0000 13.81096544    17
CTC2_L_00294013-02
1 10049U 23466MG  26075.70043981  .00000000  00000+0  00000-0 0  9996
2 10049  75.0000 144.0000 0000000   0.0000 234.0000 13.81096544    18
CTC2_L_00294013-03
1 10050U 25244XN  26075.70043981  .00000000  00000+0  00000-0 0  9994
2 10050  75.0000 144.0000 0000000   0.0000 324.0000 13.81096544    10
CTC2_L_00294013-04
1 10051U 26244K   26075.70043981  .00000000  00000+0  00000-0 0  9996
2 10051  75.0000 144.0000 0000000   0.0000  54.0000 13.81096544    11
CTC2_L_00294014-01
1 10052U 23319HR  26075.70043981  .00000000  00000+0  00000-0 0  9997
2 10052  75.0000 156.0000 0000000   0.0000 156.0000 13.81096544    18
CTC2_L_00294014-02
1 10053U 22814JB  26075.70043981  .00000000  00000+0  00000-0 0  9997
2 10053  75.0000 156.0000 0000000   0.0000 246.0000 13.81096544    19
CTC2_L_00294014-03
1 10054U 23487ZN  26075.70043981  .00000000  00000+0  00000-0 0  9995
2 10054  75.0000 156.0000 0000000   0.0000 336.0000 13.81096544    10
CTC2_L_00294014-04
1 10055U 24217PC  26075.70043981  .00000000  00000+0  00000-0 0  9998
2 10055  75.0000 156.0000 0000000   0.0000  66.0000 13.81096544    11
CTC2_L_00294015-01
1 10056U 26377DF  26075.70043981  .00000000  00000+0  00000-0 0  9998
2 10056  75.0000 168.0000 0000000   0.0000 168.0000 13.81096544    18
CTC2_L_00294015-02
1 10057U 24914TB  26075.70043981  .00000000  00000+0  00000-0 0  9994
2 10057  75.0000 168.0000 0000000   0.0000 258.0000 13.81096544    19
CTC2_L_00294015-03
1 10058U 24474AT  26075.70043981  .00000000  00000+0  00000-0 0  9996
2 10058  75.0000 168.0000 0000000   0.0000 348.0000 13.81096544    10
CTC2_L_00294015-04
1 10059U 24046UD  26075.70043981  .00000000  00000+0  00000-0 0  9992
2 10059  75.0000 168.0000 0000000   0.0000  78.0000 13.81096544    11
CTC2_L_00294016-01
1 10060U 24583CT  26075.70043981  .00000000  00000+0  00000-0 0  9990
2 10060  75.0000 180.0000 0000000   0.0000 180.0000 13.81096544    11
CTC2_L_00294016-02
1 10061U 23199OE  26075.70043981  .00000000  00000+0  00000-0 0  9993
2 10061  75.0000 180.0000 0000000   0.0000 270.0000 13.81096544    12
